[{"OBJECT_NAME":"STARLINK-2469","OBJECT_ID":"2021-027AN","EPOCH":"2026-03-09T09:17:04.188192","MEAN_MOTION":15.1882832,"ECCENTRICITY":0.0001315,"INCLINATION":53.1065,"RA_OF_ASC_NODE":102.3811,"ARG_OF_PERICENTER":92.2024,"MEAN_ANOMALY":267.9122,"EPHEMERIS_TYPE":0,"CLASSIFICATION_TYPE":"U","NORAD_CAT_ID":48128,"ELEMENT_SET_NO":999,"REV_AT_EPOCH":27335,"BSTAR":0.0010578489,"MEAN_MOTION_DOT":0.00022048,"MEAN_MOTION_DDOT":0},{"OBJECT_NAME":"YAOGAN-36 03B","OBJECT_ID":"2022-160C","EPOCH":"2026-03-09T22:41:52.530432","MEAN_MOTION":15.19636671,"ECCENTRICITY":0.00094652,"INCLINATION":34.992,"RA_OF_ASC_NODE":267.4774,"ARG_OF_PERICENTER":342.1848,"MEAN_ANOMALY":17.8533,"EPHEMERIS_TYPE":0,"CLASSIFICATION_TYPE":"U","NORAD_CAT_ID":54374,"ELEMENT_SET_NO":999,"REV_AT_EPOCH":18261,"BSTAR":0.00040085509,"MEAN_MOTION_DOT":8.731e-5,"MEAN_MOTION_DDOT":0}]
